{"fetched_at":"2026-07-20T18:29:42.038Z","source":"https://celestrak.org/NORAD/elements/gp.php?NAME=RCM&FORMAT=JSON","constellation":"rcm","records":[{"OBJECT_NAME":"RCM-1","OBJECT_ID":"2019-033A","EPOCH":"2026-07-20T07:54:54.159264","CLASSIFICATION_TYPE":"U","MEAN_MOTION":14.92591769,"ECCENTRICITY":0.00015228,"INCLINATION":97.7601,"RA_OF_ASC_NODE":208.309,"ARG_OF_PERICENTER":92.2498,"MEAN_ANOMALY":325.9673,"EPHEMERIS_TYPE":0,"NORAD_CAT_ID":44322,"ELEMENT_SET_NO":999,"REV_AT_EPOCH":38702,"BSTAR":0.000040915214,"MEAN_MOTION_DOT":0.00000365,"MEAN_MOTION_DDOT":0},{"OBJECT_NAME":"RCM-3","OBJECT_ID":"2019-033B","EPOCH":"2026-07-20T03:22:16.679712","CLASSIFICATION_TYPE":"U","MEAN_MOTION":14.92588435,"ECCENTRICITY":0.00015451,"INCLINATION":97.7599,"RA_OF_ASC_NODE":208.2165,"ARG_OF_PERICENTER":91.2473,"MEAN_ANOMALY":268.8923,"EPHEMERIS_TYPE":0,"NORAD_CAT_ID":44323,"ELEMENT_SET_NO":999,"REV_AT_EPOCH":38701,"BSTAR":-0.000019244745,"MEAN_MOTION_DOT":-0.00000254,"MEAN_MOTION_DDOT":0},{"OBJECT_NAME":"RCM-2","OBJECT_ID":"2019-033C","EPOCH":"2026-07-20T07:07:20.072640","CLASSIFICATION_TYPE":"U","MEAN_MOTION":14.92587693,"ECCENTRICITY":0.00015085,"INCLINATION":97.7604,"RA_OF_ASC_NODE":208.3209,"ARG_OF_PERICENTER":92.0182,"MEAN_ANOMALY":268.121,"EPHEMERIS_TYPE":0,"NORAD_CAT_ID":44324,"ELEMENT_SET_NO":999,"REV_AT_EPOCH":38702,"BSTAR":0.000059213774,"MEAN_MOTION_DOT":0.00000553,"MEAN_MOTION_DDOT":0}]}
