RCM-1                   
1 44322U 19033A   26201.32979351  .00000365  00000+0  40915-4 0  9997
2 44322  97.7601 208.3090 0001522  92.2498 325.9673 14.92591769387021
RCM-3                   
1 44323U 19033B   26201.14047083 -.00000254  00000+0 -19245-4 0  9997
2 44323  97.7599 208.2165 0001545  91.2473 268.8923 14.92588435387015
RCM-2                   
1 44324U 19033C   26201.29676010  .00000553  00000+0  59214-4 0  9992
2 44324  97.7604 208.3209 0001508  92.0182 268.1210 14.92587693387026
